STARLINK-30171          
1 57469U 23107N   25184.51617887 -.00000003  00000+0  14837-4 0  9997
2 57469  43.0027 252.7015 0001472 272.9650  87.1024 15.02542057107636
STARLINK-30186          
1 57470U 23107P   25184.51950378  .00000126  00000+0  24435-4 0  9994
2 57470  43.0025 252.7243 0001464 273.5590  86.5085 15.02536969107635
STARLINK-30190          
1 57471U 23107Q   25184.44458891  .00047721  00000+0  18413-2 0  9999
2 57471  42.9947 236.0431 0022088  47.4537 312.8174 15.25345117107828
STARLINK-30204          
1 57472U 23107R   25184.51284526 -.00000122  00000+0  60279-5 0  9995
2 57472  43.0021 252.6754 0001486 273.9003  86.1670 15.02536822107630
STARLINK-30187          
1 57473U 23107S   25184.50951397  .00000022  00000+0  16709-4 0  9998
2 57473  43.0023 252.6423 0001473 274.3915  85.6759 15.02536558107637
STARLINK-30110          
1 57474U 23107T   25184.46599519  .00035936  00000+0  15943-2 0  9997
2 57474  43.0011 231.1697 0015488  41.5607 318.6417 15.20869079107887
STARLINK-30155          
1 57475U 23107U   25184.49952825  .00000084  00000+0  21289-4 0  9992
2 57475  43.0026 252.5740 0001621 271.6994  88.3663 15.02533405107637
STARLINK-30161          
1 57476U 23107V   25184.56267700  .00000139  00000+0  25400-4 0  9992
2 57476  43.0035 252.1864 0001569 271.3861  88.6801 15.02533443107642
STARLINK-30176          
1 57477U 23107W   25184.49398798  .00000444  00000+0  47918-4 0  9994
2 57477  43.0029 252.5305 0001391 268.5038  91.5645 15.02527697107639
STARLINK-30154          
1 57495U 23113A   25184.71482870 -.00000066  00000+0  10168-4 0  9999
2 57495  43.0027 290.5558 0001433 268.7354  91.3324 15.02535728106049
STARLINK-30145          
1 57496U 23113B   25184.63170359  .00000885  00000+0  80609-4 0  9992
2 57496  43.0033 290.8050 0001444 271.7196  88.3481 15.02532368106088
STARLINK-30226          
1 57497U 23113C   25184.62837387  .00000695  00000+0  66517-4 0  9994
2 57497  43.0038 290.7899 0001543 264.7827  95.2840 15.02534566106096
STARLINK-30203          
1 57498U 23113D   25184.68486567  .00000135  00000+0  25105-4 0  9998
2 57498  43.0046 290.3454 0001548 268.3238  91.7427 15.02531937106226
STARLINK-30169          
1 57499U 23113E   25184.64864755  .00000627  00000+0  61491-4 0  9998
2 57499  43.0033 278.2128 0001581 267.6477  92.4184 15.02535593106185
STARLINK-30164          
1 57500U 23113F   25184.67487227 -.00000587  00000+0 -28366-4 0  9990
2 57500  43.0049 290.2678 0001708 286.9093  73.1562 15.02541420106203
STARLINK-30072          
1 57501U 23113G   25184.66821155  .00000383  00000+0  43429-4 0  9991
2 57501  43.0036 290.2101 0001254 273.9568  86.1131 15.02536511106098
STARLINK-30228          
1 57502U 23113H   25184.65458822  .00007146  00000+0  33027-3 0  9994
2 57502  42.9992 273.9997 0002087 276.0805  83.9806 15.20623014106282
STARLINK-30230          
1 57503U 23113J   25184.67820167  .00000099  00000+0  22443-4 0  9993
2 57503  43.0034 290.2874 0001491 267.7021  92.3650 15.02535216106099
STARLINK-30213          
1 57504U 23113K   25184.66499623  .00000644  00000+0  62739-4 0  9990
2 57504  43.0040 291.0343 0001349 272.9047  87.1641 15.02539523106193
STARLINK-30227          
1 57505U 23113L   25184.57214726  .00001552  00000+0  12989-3 0  9990
2 57505  43.0036 278.1991 0001454 278.7473  81.3205 15.02544159106337
STARLINK-30212          
1 57506U 23113M   25184.72814578  .00000955  00000+0  85744-4 0  9995
2 57506  43.0035 290.6546 0001697 270.2744  89.7904 15.02535669106041
STARLINK-30219          
1 57507U 23113N   25184.65834221  .00000811  00000+0  75119-4 0  9991
2 57507  43.0036 291.0045 0001568 267.0202  93.0461 15.02534189106190
STARLINK-30074          
1 57508U 23113P   25184.60506317  .00000481  00000+0  50664-4 0  9990
2 57508  43.0033 290.5975 0001402 269.1977  90.8704 15.02535182105988
STARLINK-30082          
1 57509U 23113Q   25184.71150087  .00000836  00000+0  76991-4 0  9997
2 57509  43.0051 290.5434 0001293 269.1238  90.9456 15.02530599106205
STARLINK-30153          
1 57510U 23113R   25184.64169265  .00000483  00000+0  50806-4 0  9994
2 57510  43.0035 290.8895 0001460 270.8567  89.2108 15.02533482106088
STARLINK-30147          
1 57511U 23113S   25184.65169394 -.00000757  00000+0 -40994-4 0  9992
2 57511  43.0046 290.9529 0001717 265.2868  94.7779 15.02523404106193
STARLINK-30157          
1 57512U 23113T   25184.52915605  .00000534  00000+0  54589-4 0  9999
2 57512  43.0042 265.2012 0001617 269.1566  90.9091 15.02535999106488
STARLINK-30168          
1 57513U 23113U   25184.65500707  .00000308  00000+0  37868-4 0  9997
2 57513  43.0031 290.9486 0001280 269.5212  90.5483 15.02535226106030
STARLINK-30231          
1 57514U 23113V   25184.63836006 -.00000120  00000+0  61637-5 0  9995
2 57514  43.0010 290.8459 0001152 266.1960  93.8751 15.02537799106196
STARLINK-30081          
1 57515U 23113W   25184.62504314  .00000171  00000+0  27763-4 0  9995
2 57515  43.0027 290.7651 0001381 268.0834  91.9850 15.02535997106190
STARLINK-30149          
1 57516U 23113X   25184.68153278  .00000707  00000+0  67441-4 0  9993
2 57516  43.0033 290.3213 0001502 270.9679  89.0992 15.02535589106105
STARLINK-30259          
1 57521U 23115A   25184.68189395  .00000245  00000+0  33222-4 0  9997
2 57521  43.0037 278.0727 0001422 267.0975  92.9705 15.02533028106072
STARLINK-30256          
1 57522U 23115B   25184.61208694 -.00000443  00000+0 -17756-4 0  9991
2 57522  43.0034 278.4074 0001289 263.3729  96.6966 15.02536052104849
STARLINK-30261          
1 57523U 23115C   25184.60875523  .00000372  00000+0  42593-4 0  9998
2 57523  43.0038 278.3802 0001549 266.5933  93.4732 15.02533080105848
STARLINK-30260          
1 57524U 23115D   25184.53894994  .00000135  00000+0  25043-4 0  9992
2 57524  43.0057 278.7377 0001714 272.1406  87.9240 15.02537252104838
STARLINK-30253          
1 57525U 23115E   25184.66192585 -.00001393  00000+0 -88065-4 0  9996
2 57525  43.0041 277.9246 0001408 271.1758  88.8923 15.02524914104858
STARLINK-30257          
1 57526U 23115F   25184.66524617 -.00000136  00000+0  49909-5 0  9990
2 57526  43.0032 277.9755 0001428 268.6110  91.4569 15.02536886104856
STARLINK-30250          
1 57527U 23115G   25184.65858374  .00000169  00000+0  27600-4 0  9998
2 57527  43.0041 277.8957 0001679 275.4171  84.6479 15.02535554105756
STARLINK-30269          
1 57528U 23115H   25184.64527057 -.00000017  00000+0  13831-4 0  9993
2 57528  43.0025 277.8260 0001346 275.2119  84.8570 15.02535236104858
STARLINK-30266          
1 57529U 23115J   25184.63527958 -.00000052  00000+0  11236-4 0  9999
2 57529  43.0032 277.7326 0001553 267.6860  92.3804 15.02531473104850
STARLINK-30270          
1 57530U 23115K   25184.64193757  .00001019  00000+0  90511-4 0  9994
2 57530  43.0033 277.7921 0001423 274.0926  85.9754 15.02536571104851
STARLINK-30268          
1 57531U 23115L   25184.65526267  .00000242  00000+0  33020-4 0  9991
2 57531  43.0037 277.8906 0001523 268.9821  91.0847 15.02530135104858
STARLINK-30251          
1 57532U 23115M   25184.64970516  .00000695  00000+0  66485-4 0  9994
2 57532  43.0021 277.8366 0001450 270.5578  89.5098 15.02536130104850
STARLINK-30254          
1 57533U 23115N   25184.72174955  .00000088  00000+0  12740-4 0  9998
2 57533  43.0024  69.1960 0001254 266.6332  93.4376 15.27572244107288
STARLINK-30264          
1 57534U 23115P   25184.67911140 -.00000104  00000+0  58629-5 0  9995
2 57534  43.0028 174.3137 0001209 276.2939  83.7774 15.25910066107288
STARLINK-30262          
1 57535U 23115Q   25184.14786230  .00081684  00000+0  63520-3 0  9993
2 57535  43.0009 109.3192 0001705 232.4045 127.6668 15.70788297106761
STARLINK-30166          
1 57602U 23119A   25184.74335875  .00000002  00000+0  15215-4 0  9997
2 57602  43.0053 354.6831 0001503 264.4140  95.6531 15.02534639105572
STARLINK-30223          
1 57603U 23119B   25184.78985553  .00000419  00000+0  46117-4 0  9993
2 57603  43.0045 354.1632 0001191 269.3439  90.7267 15.02538563105635
STARLINK-30218          
1 57604U 23119C   25184.79651811 -.00000070  00000+0  98659-5 0  9995
2 57604  43.0050 354.2240 0001362 266.2445  93.8241 15.02535292105644
STARLINK-30138          
1 57605U 23119D   25184.52727601  .00000626  00000+0  61407-4 0  9994
2 57605  43.0050 355.6425 0001347 269.3966  90.6722 15.02536937105602
STARLINK-30255          
1 57606U 23119E   25184.90061459  .00000517  00000+0  53379-4 0  9997
2 57606  43.0052 353.2784 0001443 269.9017  90.1660 15.02536859105662
STARLINK-30252          
1 57607U 23119F   25184.73699471 -.00000241  00000+0 -27705-5 0  9991
2 57607  43.0032 341.8992 0000933 267.7643  92.3093 15.02534722105783
STARLINK-30258          
1 57608U 23119G   25184.78430795  .00000741  00000+0  69930-4 0  9997
2 57608  43.0044 354.1311 0001270 253.9028 106.1675 15.02536237105646
STARLINK-30174          
1 57609U 23119H   25184.77653844  .00000600  00000+0  59508-4 0  9993
2 57609  43.0050 354.0735 0001305 262.4875  97.5819 15.02537108105648
STARLINK-30248          
1 57610U 23119J   25184.77986901  .00000394  00000+0  44209-4 0  9990
2 57610  43.0039 354.0943 0001250 271.2298  88.8401 15.02535748105642
STARLINK-30052          
1 57611U 23119K   25184.83968893 -.00000337  00000+0 -98795-5 0  9997
2 57611  43.0046 353.6873 0001341 265.4581  94.6108 15.02537009105639
STARLINK-30245          
1 57612U 23119L   25184.90283264  .00000622  00000+0  61110-4 0  9993
2 57612  43.0044 353.3001 0001318 263.6313  96.4379 15.02538490105663
STARLINK-30041          
1 57613U 23119M   25184.89949072 -.00013037  00000+0 -95026-3 0  9996
2 57613  43.0032 353.2763 0001426 263.0545  97.0135 15.02596452105665
STARLINK-30244          
1 57614U 23119N   25184.82969531  .00000676  00000+0  65096-4 0  9990
2 57614  43.0043 353.6110 0001249 264.0908  95.9792 15.02535623105653
